{
    "CCSDS_OMM_VERS": "3.0",
    "COMMENT": "GENERATED VIA SPACE-TRACK.ORG API",
    "CREATION_DATE": "2025-11-23T21:08:43",
    "ORIGINATOR": "18 SPCS",
    "OBJECT_NAME": "COSMOS 2492 (GLONASS)",
    "OBJECT_ID": "2014-012A",
    "CENTER_NAME": "EARTH",
    "REF_FRAME": "TEME",
    "TIME_SYSTEM": "UTC",
    "MEAN_ELEMENT_THEORY": "SGP4",
    "EPOCH": "2025-11-23T07:59:50.323776",
    "MEAN_MOTION": "2.13103290",
    "ECCENTRICITY": "0.00140489",
    "INCLINATION": "65.4185",
    "RA_OF_ASC_NODE": "320.9292",
    "ARG_OF_PERICENTER": "309.7255",
    "MEAN_ANOMALY": "50.1630",
    "EPHEMERIS_TYPE": "0",
    "CLASSIFICATION_TYPE": "U",
    "NORAD_CAT_ID": "39620",
    "ELEMENT_SET_NO": "999",
    "REV_AT_EPOCH": "9085",
    "BSTAR": "0.00000000000000",
    "MEAN_MOTION_DOT": "-0.00000031",
    "MEAN_MOTION_DDOT": "0.0000000000000",
    "SEMIMAJOR_AXIS": "25507.921",
    "PERIOD": "675.729",
    "APOAPSIS": "19165.622",
    "PERIAPSIS": "19093.951",
    "OBJECT_TYPE": "PAYLOAD",
    "RCS_SIZE": "LARGE",
    "COUNTRY_CODE": "CIS",
    "LAUNCH_DATE": "2014-03-23",
    "SITE": "PKMTR",
    "DECAY_DATE": null,
    "FILE": "4896238",
    "GP_ID": "303331476",
    "TLE_LINE0": "0 COSMOS 2492 (GLONASS)",
    "TLE_LINE1": "1 39620U 14012A   25327.33322134 -.00000031  00000-0  00000-0 0  9993",
    "TLE_LINE2": "2 39620  65.4185 320.9292 0014049 309.7255  50.1630  2.13103290 90855"
}